ONEWEB-0668             
1 56711U 23068B   25328.76909200  .00000072  00000+0  15363-3 0  9991
2 56711  87.9045 269.4601 0001580  59.2332 300.8955 13.16588962124883
ONEWEB-0676             
1 56712U 23068C   25328.77703059 -.00000018  00000+0 -80701-4 0  9998
2 56712  87.9031 269.4827 0001932  80.1214 280.0135 13.16593754124808
ONEWEB-0677             
1 56713U 23068D   25328.71914055 -.00000079  00000+0 -22656-3 0  9994
2 56713  87.9193 315.2099 0001791  92.1274 268.0065 13.20769467122819
ONEWEB-0678             
1 56714U 23068E   25328.64183602 -.00000090  00000+0 -27431-3 0  9992
2 56714  87.8979 299.9977 0002215  86.0226 274.1158 13.15547544122393
ONEWEB-0679             
1 56715U 23068F   25328.88783380  .00000042  00000+0  75095-4 0  9993
2 56715  87.9022 269.4455 0001344  79.6762 280.4521 13.16595994124841
ONEWEB-0680             
1 56716U 23068G   25328.86775174  .00000034  00000+0  50138-4 0  9996
2 56716  87.9203 284.7135 0001431  68.1660 291.9626 13.21827250124106
ONEWEB-0681             
1 56717U 23068H   25328.84718622 -.00000273  00000+0 -69276-3 0  9999
2 56717  87.9197 284.7344 0001913 113.9245 246.2089 13.21825646124095
ONEWEB-0682             
1 56718U 23068J   25328.89614803  .00000097  00000+0  22361-3 0  9997
2 56718  87.8970 299.9629 0001416  76.3919 283.7369 13.15550156122590
